[{"OBJECT_NAME":"STARLINK-5405","OBJECT_ID":"2022-177AV","EPOCH":"2026-03-09T22:00:01.999584","MEAN_MOTION":15.10138362,"ECCENTRICITY":0.00022647,"INCLINATION":43.0003,"RA_OF_ASC_NODE":118.8371,"ARG_OF_PERICENTER":258.7571,"MEAN_ANOMALY":56.1393,"EPHEMERIS_TYPE":0,"CLASSIFICATION_TYPE":"U","NORAD_CAT_ID":54863,"ELEMENT_SET_NO":999,"REV_AT_EPOCH":572,"BSTAR":0.0015080968,"MEAN_MOTION_DOT":0.00024894,"MEAN_MOTION_DDOT":0},{"OBJECT_NAME":"COSMOS 2251 DEB","OBJECT_ID":"1993-036EU","EPOCH":"2026-03-09T14:44:02.306976","MEAN_MOTION":15.10275873,"ECCENTRICITY":0.0002082,"INCLINATION":74.0027,"RA_OF_ASC_NODE":262.4484,"ARG_OF_PERICENTER":258.1067,"MEAN_ANOMALY":101.9891,"EPHEMERIS_TYPE":0,"CLASSIFICATION_TYPE":"U","NORAD_CAT_ID":33939,"ELEMENT_SET_NO":999,"REV_AT_EPOCH":90059,"BSTAR":0.0040153,"MEAN_MOTION_DOT":0.00066338,"MEAN_MOTION_DDOT":0}]
